{
  "norad_id": 40959,
  "name": "LINGQIAO VIDEO A",
  "history": [
    {
      "epoch": "2026-04-11T20:24:34.546176Z",
      "apogee_km": 650.4960609092122,
      "perigee_km": 625.2132334095095,
      "latitude_deg": 1.0579411651249348e-06,
      "longitude_deg": -46.27331344693701,
      "height_km": 647.5205759871149,
      "semi_major_axis_km": 7015.991647159361,
      "eccentricity": 0.0018018,
      "inclination_deg": 97.6628,
      "raan_deg": 99.9346,
      "arg_perigee_deg": 121.8927,
      "mean_anomaly_deg": 238.404,
      "mean_motion_rev_day": 14.77301596
    },
    {
      "epoch": "2026-04-13T06:32:48.255072Z",
      "apogee_km": 650.5326553893747,
      "perigee_km": 625.1697177751166,
      "latitude_deg": -7.915864362918016e-05,
      "longitude_deg": 161.61971372575667,
      "height_km": 646.7040589103707,
      "semi_major_axis_km": 7015.988186582245,
      "eccentricity": 0.00180751,
      "inclination_deg": 97.6625,
      "raan_deg": 101.2867,
      "arg_perigee_deg": 117.5659,
      "mean_anomaly_deg": 242.739,
      "mean_motion_rev_day": 14.77302689
    },
    {
      "epoch": "2026-04-14T19:56:05.916192Z",
      "apogee_km": 650.5932219148863,
      "perigee_km": 625.0929407113454,
      "latitude_deg": 4.5674188509648514e-05,
      "longitude_deg": -39.25916971932216,
      "height_km": 645.7875534157197,
      "semi_major_axis_km": 7015.980081313116,
      "eccentricity": 0.0018173,
      "inclination_deg": 97.6621,
      "raan_deg": 102.7669,
      "arg_perigee_deg": 112.9084,
      "mean_anomaly_deg": 247.4048,
      "mean_motion_rev_day": 14.77305249
    },
    {
      "epoch": "2026-04-15T21:56:39.012288Z",
      "apogee_km": 650.6321529800543,
      "perigee_km": 625.0532941039646,
      "latitude_deg": 1.9129062796560957e-05,
      "longitude_deg": -69.43542409715874,
      "height_km": 645.1312773640494,
      "semi_major_axis_km": 7015.979723542009,
      "eccentricity": 0.0018229,
      "inclination_deg": 97.6619,
      "raan_deg": 103.7967,
      "arg_perigee_deg": 109.689,
      "mean_anomaly_deg": 250.629,
      "mean_motion_rev_day": 14.77305362
    },
    {
      "epoch": "2026-04-16T20:42:08.021376Z",
      "apogee_km": 650.6480672175021,
      "perigee_km": 625.0453394872293,
      "latitude_deg": -8.823277652388713e-05,
      "longitude_deg": -50.83991936445142,
      "height_km": 644.5146674069176,
      "semi_major_axis_km": 7015.983703352365,
      "eccentricity": 0.0018246,
      "inclination_deg": 97.6617,
      "raan_deg": 104.6977,
      "arg_perigee_deg": 106.7516,
      "mean_anomaly_deg": 253.5698,
      "mean_motion_rev_day": 14.77304105
    },
    {
      "epoch": "2026-04-17T22:42:41.011200Z",
      "apogee_km": 650.6688578107069,
      "perigee_km": 625.0147909198386,
      "latitude_deg": -7.599285538871876e-08,
      "longitude_deg": -81.01564580805463,
      "height_km": 643.8545625217986,
      "semi_major_axis_km": 7015.978824365273,
      "eccentricity": 0.00182826,
      "inclination_deg": 97.6616,
      "raan_deg": 105.7276,
      "arg_perigee_deg": 103.6899,
      "mean_anomaly_deg": 256.6349,
      "mean_motion_rev_day": 14.77305646
    },
    {
      "epoch": "2026-04-18T21:28:09.772320Z",
      "apogee_km": 650.6812340495799,
      "perigee_km": 624.9873439949224,
      "latitude_deg": 6.788900863137898e-05,
      "longitude_deg": -62.41893025235929,
      "height_km": 643.2176591085353,
      "semi_major_axis_km": 7015.971289022251,
      "eccentricity": 0.0018311,
      "inclination_deg": 97.6617,
      "raan_deg": 106.6288,
      "arg_perigee_deg": 100.8006,
      "mean_anomaly_deg": 259.5268,
      "mean_motion_rev_day": 14.77308026
    },
    {
      "epoch": "2026-04-19T21:51:10.522080Z",
      "apogee_km": 650.707281804529,
      "perigee_km": 624.9544701190243,
      "latitude_deg": 2.5672555306485305e-05,
      "longitude_deg": -68.20754622036023,
      "height_km": 642.5442259117174,
      "semi_major_axis_km": 7015.967875961776,
      "eccentricity": 0.0018353,
      "inclination_deg": 97.6618,
      "raan_deg": 107.5947,
      "arg_perigee_deg": 97.7586,
      "mean_anomaly_deg": 262.571,
      "mean_motion_rev_day": 14.77309104
    }
  ]
}